{
  "type": "FeatureCollection",
  "features": [
    {
      "type": "Feature",
      "properties": {
        "norad_id": 66597,
        "name": "STARLINK-35820",
        "group": "last-30-days",
        "lat": -19.07856401209227,
        "lon": -3.8462256508569195,
        "alt_km": 445.6524722812337,
        "timestamp": "2025-12-19T08:58:48.082331+00:00",
        "meta_object_name": "STARLINK-35820",
        "meta_object_id": "2025-270K",
        "meta_epoch": "2025-12-18T21:11:16.223424",
        "meta_mean_motion": 15.4071803,
        "meta_eccentricity": 0.00015238,
        "meta_inclination": 42.9992,
        "meta_ra_of_asc_node": 157.1985,
        "meta_arg_of_pericenter": 287.0164,
        "meta_mean_anomaly": 73.0525,
        "meta_ephemeris_type": 0,
        "meta_classification_type": "U",
        "meta_norad_cat_id": 66597,
        "meta_element_set_no": 999,
        "meta_rev_at_epoch": 540,
        "meta_bstar": 0.00048868017,
        "meta_mean_motion_dot": 0.00020176,
        "meta_mean_motion_ddot": 0,
        "tle_line1": "1 66597U 25270K   25352.88282666  .00020176  00000+0  48868-3 0  9994",
        "tle_line2": "2 66597  42.9992 157.1985 0001523 287.0164  73.0525 15.40718030  5405"
      },
      "geometry": {
        "type": "Point",
        "coordinates": [
          -3.8462256508569195,
          -19.07856401209227
        ]
      }
    },
    {
      "type": "Feature",
      "properties": {
        "norad_id": 66598,
        "name": "STARLINK-35981",
        "group": "last-30-days",
        "lat": -37.95229619929128,
        "lon": 97.33163818764694,
        "alt_km": 445.78949203168486,
        "timestamp": "2025-12-19T08:58:48.082344+00:00",
        "meta_object_name": "STARLINK-35981",
        "meta_object_id": "2025-270L",
        "meta_epoch": "2025-12-19T00:00:02.000160",
        "meta_mean_motion": 15.40671165,
        "meta_eccentricity": 0.00021375,
        "meta_inclination": 42.9994,
        "meta_ra_of_asc_node": 156.3129,
        "meta_arg_of_pericenter": 273.5568,
        "meta_mean_anomaly": 104.3817,
        "meta_ephemeris_type": 0,
        "meta_classification_type": "U",
        "meta_norad_cat_id": 66598,
        "meta_element_set_no": 999,
        "meta_rev_at_epoch": 524,
        "meta_bstar": 0.0013011777,
        "meta_mean_motion_dot": 0.00054388,
        "meta_mean_motion_ddot": 0,
        "tle_line1": "1 66598U 25270L   25353.00002315  .00054388  00000+0  13012-2 0  9995",
        "tle_line2": "2 66598  42.9994 156.3129 0002137 273.5568 104.3817 15.40671165  5240"
      },
      "geometry": {
        "type": "Point",
        "coordinates": [
          97.33163818764694,
          -37.95229619929128
        ]
      }
    },
    {
      "type": "Feature",
      "properties": {
        "norad_id": 66599,
        "name": "STARLINK-35930",
        "group": "last-30-days",
        "lat": 29.7137549916544,
        "lon": -168.34696842151143,
        "alt_km": 410.41617674467307,
        "timestamp": "2025-12-19T08:58:48.082356+00:00",
        "meta_object_name": "STARLINK-35930",
        "meta_object_id": "2025-270M",
        "meta_epoch": "2025-12-18T20:24:45.368640",
        "meta_mean_motion": 15.50586596,
        "meta_eccentricity": 0.00012918,
        "meta_inclination": 42.9996,
        "meta_ra_of_asc_node": 156.9496,
        "meta_arg_of_pericenter": 288.1019,
        "meta_mean_anomaly": 71.9701,
        "meta_ephemeris_type": 0,
        "meta_classification_type": "U",
        "meta_norad_cat_id": 66599,
        "meta_element_set_no": 999,
        "meta_rev_at_epoch": 529,
        "meta_bstar": 0.0013334425,
        "meta_mean_motion_dot": 0.00078696,
        "meta_mean_motion_ddot": 0,
        "tle_line1": "1 66599U 25270M   25352.85052510  .00078696  00000+0  13334-2 0  9995",
        "tle_line2": "2 66599  42.9996 156.9496 0001291 288.1019  71.9701 15.50586596  5299"
      },
      "geometry": {
        "type": "Point",
        "coordinates": [
          -168.34696842151143,
          29.7137549916544
        ]
      }
    },
    {
      "type": "Feature",
      "properties": {
        "norad_id": 66600,
        "name": "STARLINK-35980",
        "group": "last-30-days",
        "lat": -9.972036424121034,
        "lon": 143.1592774144729,
        "alt_km": 444.37639497170676,
        "timestamp": "2025-12-19T08:58:48.082367+00:00",
        "meta_object_name": "STARLINK-35980",
        "meta_object_id": "2025-270N",
        "meta_epoch": "2025-12-19T00:00:02.000160",
        "meta_mean_motion": 15.40670849,
        "meta_eccentricity": 0.00020993,
        "meta_inclination": 42.9997,
        "meta_ra_of_asc_node": 156.1918,
        "meta_arg_of_pericenter": 277.4972,
        "meta_mean_anomaly": 150.195,
        "meta_ephemeris_type": 0,
        "meta_classification_type": "U",
        "meta_norad_cat_id": 66600,
        "meta_element_set_no": 999,
        "meta_rev_at_epoch": 530,
        "meta_bstar": 0.0013757518,
        "meta_mean_motion_dot": 0.00057545,
        "meta_mean_motion_ddot": 0,
        "tle_line1": "1 66600U 25270N   25353.00002315  .00057545  00000+0  13758-2 0  9994",
        "tle_line2": "2 66600  42.9997 156.1918 0002099 277.4972 150.1950 15.40670849  5302"
      },
      "geometry": {
        "type": "Point",
        "coordinates": [
          143.1592774144729,
          -9.972036424121034
        ]
      }
    },
    {
      "type": "Feature",
      "properties": {
        "norad_id": 66601,
        "name": "STARLINK-35978",
        "group": "last-30-days",
        "lat": -38.49716765039382,
        "lon": 32.87610239801007,
        "alt_km": 446.24281492164937,
        "timestamp": "2025-12-19T08:58:48.082377+00:00",
        "meta_object_name": "STARLINK-35978",
        "meta_object_id": "2025-270P",
        "meta_epoch": "2025-12-19T00:00:02.000160",
        "meta_mean_motion": 15.4067904,
        "meta_eccentricity": 0.00015762,
        "meta_inclination": 42.9991,
        "meta_ra_of_asc_node": 156.4332,
        "meta_arg_of_pericenter": 273.7278,
        "meta_mean_anomaly": 54.5156,
        "meta_ephemeris_type": 0,
        "meta_classification_type": "U",
        "meta_norad_cat_id": 66601,
        "meta_element_set_no": 999,
        "meta_rev_at_epoch": 524,
        "meta_bstar": 0.0012341466,
        "meta_mean_motion_dot": 0.00051563,
        "meta_mean_motion_ddot": 0,
        "tle_line1": "1 66601U 25270P   25353.00002315  .00051563  00000+0  12341-2 0  9996",
        "tle_line2": "2 66601  42.9991 156.4332 0001576 273.7278  54.5156 15.40679040  5247"
      },
      "geometry": {
        "type": "Point",
        "coordinates": [
          32.87610239801007,
          -38.49716765039382
        ]
      }
    },
    {
      "type": "Feature",
      "properties": {
        "norad_id": 66602,
        "name": "STARLINK-36050",
        "group": "last-30-days",
        "lat": 5.893342871829842,
        "lon": -31.904059438759397,
        "alt_km": 443.1604296516143,
        "timestamp": "2025-12-19T08:58:48.082387+00:00",
        "meta_object_name": "STARLINK-36050",
        "meta_object_id": "2025-270Q",
        "meta_epoch": "2025-12-18T21:20:56.943744",
        "meta_mean_motion": 15.40719166,
        "meta_eccentricity": 0.00014785,
        "meta_inclination": 42.9988,
        "meta_ra_of_asc_node": 157.2495,
        "meta_arg_of_pericenter": 273.7897,
        "meta_mean_anomaly": 86.2791,
        "meta_ephemeris_type": 0,
        "meta_classification_type": "U",
        "meta_norad_cat_id": 66602,
        "meta_element_set_no": 999,
        "meta_rev_at_epoch": 519,
        "meta_bstar": 0.00058412469,
        "meta_mean_motion_dot": 0.0002419,
        "meta_mean_motion_ddot": 0,
        "tle_line1": "1 66602U 25270Q   25352.88954796  .00024190  00000+0  58412-3 0  9997",
        "tle_line2": "2 66602  42.9988 157.2495 0001478 273.7897  86.2791 15.40719166  5196"
      },
      "geometry": {
        "type": "Point",
        "coordinates": [
          -31.904059438759397,
          5.893342871829842
        ]
      }
    },
    {
      "type": "Feature",
      "properties": {
        "norad_id": 66603,
        "name": "STARLINK-36048",
        "group": "last-30-days",
        "lat": -41.59791173305402,
        "lon": 81.87381673771186,
        "alt_km": 446.29678792326195,
        "timestamp": "2025-12-19T08:58:48.082397+00:00",
        "meta_object_name": "STARLINK-36048",
        "meta_object_id": "2025-270R",
        "meta_epoch": "2025-12-19T00:00:02.000160",
        "meta_mean_motion": 15.40671961,
        "meta_eccentricity": 0.00015235,
        "meta_inclination": 42.9992,
        "meta_ra_of_asc_node": 156.3425,
        "meta_arg_of_pericenter": 272.9773,
        "meta_mean_anomaly": 92.5191,
        "meta_ephemeris_type": 0,
        "meta_classification_type": "U",
        "meta_norad_cat_id": 66603,
        "meta_element_set_no": 999,
        "meta_rev_at_epoch": 530,
        "meta_bstar": 0.0012839185,
        "meta_mean_motion_dot": 0.00053657,
        "meta_mean_motion_ddot": 0,
        "tle_line1": "1 66603U 25270R   25353.00002315  .00053657  00000+0  12839-2 0  9996",
        "tle_line2": "2 66603  42.9992 156.3425 0001523 272.9773  92.5191 15.40671961  5307"
      },
      "geometry": {
        "type": "Point",
        "coordinates": [
          81.87381673771186,
          -41.59791173305402
        ]
      }
    }
  ]
}